OBJECT_NAME,OBJECT_ID,EPOCH,MEAN_MOTION,ECCENTRICITY,INCLINATION,RA_OF_ASC_NODE,ARG_OF_PERICENTER,MEAN_ANOMALY,EPHEMERIS_TYPE,CLASSIFICATION_TYPE,NORAD_CAT_ID,ELEMENT_SET_NO,REV_AT_EPOCH,BSTAR,MEAN_MOTION_DOT,MEAN_MOTION_DDOT
EYESAT A (AO-27),1993-061C,2026-06-07T03:22:27.801984,14.30939726,.0009348,98.6881,225.5574,125.8685,234.3367,0,U,22825,999,70556,.64541E-4,.125E-5,0
ITAMSAT (IO-26),1993-061D,2026-06-06T15:12:30.452256,14.31365981,.0010034,98.6828,224.9671,112.4178,247.8069,0,U,22826,999,70580,.56152E-4,.104E-5,0
RADIO ROSTO (RS15),1994-085A,2026-06-07T04:23:14.244000,11.27583633,.015564,64.8186,319.3964,5.7239,354.5419,0,U,23439,999,29477,.31161E-3,-.32E-6,0
JAS-2 (FO-29),1996-046B,2026-06-07T07:55:01.873920,13.53273665,.0350731,98.5249,8.5522,121.9451,241.6299,0,U,24278,999,47183,.14338E-4,-.18E-6,0
FORTE,1997-047A,2026-06-07T08:35:28.519008,14.27941549,.0024488,69.9542,36.2232,289.2764,70.5710,0,U,24920,999,49728,.97362E-4,.184E-5,0
TECHSAT 1B (GO-32),1998-043D,2026-06-06T14:21:22.435776,14.24426350,.00004642,99.0065,150.0898,193.9791,166.1374,0,U,25397,999,44982,.49896193E-4,.69E-6,0
ISS (ZARYA),1998-067A,2026-06-07T07:42:05.455008,15.49651405,.0006961,51.6340,348.9335,143.5924,216.5539,0,U,25544,999,57022,.16649E-3,.8946E-4,0
IMAGE,2000-017A,2026-06-01T06:23:33.544608,1.68666062,.74437368,94.2162,315.1599,289.6105,8.6041,0,U,26113,999,16123,-.18882371E-1,-.99E-6,0
CLUSTER II-FM7 (SAMBA),2000-041A,2026-06-08T05:08:54.965184,0.44821039,.90443049,149.9021,49.0985,266.1693,359.9197,0,U,26410,999,2027,0,.4289E-4,0
CLUSTER II-FM8 (TANGO),2000-045B,2026-06-06T04:22:15.257856,0.44406384,.90462015,150.1407,49.6985,266.6195,3.2041,0,U,26464,999,2026,0,.4544E-4,0
ODIN,2001-007A,2026-06-07T08:50:53.641824,15.72644851,.0006399,97.3853,198.7034,156.6271,203.5285,0,U,26702,999,38785,.11487E-2,.156566E-2,0
OMNI-M1,2001-026A,2026-06-07T00:52:23.982816,3.92401508,.00145,44.8338,247.6044,52.1985,307.9833,0,U,26857,999,20517,0,-.11E-6,0
PCSAT (NO-44),2001-043C,2026-06-07T00:45:40.777344,14.31952522,.00061144,67.0513,270.5377,264.2212,95.8193,0,U,26931,999,28899,.84457089E-4,.144E-5,0
PROBA-1,2001-049B,2026-06-07T12:17:07.969920,15.07452383,.0055424,97.9598,166.7072,154.1725,206.2288,0,U,26958,999,34216,.17589E-3,.2689E-4,0
SAUDISAT 1C (SO-50),2002-058C,2026-06-07T05:49:27.266880,14.83025886,.0075455,64.5504,159.7532,264.2954,94.9545,0,U,27607,999,26298,.16136E-3,.1225E-4,0
CORIOLIS,2003-001A,2026-06-07T06:16:42.309120,14.19942145,.0012928,98.7127,165.2980,239.2827,120.7076,0,U,27640,999,21281,.77032E-4,.12E-5,0
CUTE-1 (CO-55),2003-031E,2026-06-06T11:59:55.616928,14.24329258,.0008851,98.6735,166.1932,210.1158,149.9513,0,U,27844,999,19015,.15775E-3,.321E-5,0
CUBESAT XI-IV (CO-57),2003-031J,2026-06-06T13:16:47.996256,14.23615194,.00084595,98.6767,165.9671,230.3427,129.7005,0,U,27848,999,18986,.13659001E-3,.268E-5,0
MOZHAETS 4 (RS22),2003-042A,2026-06-07T13:30:44.011296,14.73451912,.0010215,98.3472,342.6498,303.9342,84.6334,0,U,27939,999,21413,.2169E-3,.1355E-4,0
